0 COSMOS 1823 DEB
1 18802U 87020AN  13282.81590238  .00000124  00000-0  11808-2 0  9849
2 18802 073.5910 067.8143 0105429 003.6721 108.7253 12.29756221157382
0 COSMOS 1823 DEB
1 18802U 87020AN  13287.12628716  .00000107  00000-0  10427-2 0  9860
2 18802 073.5919 062.1511 0105500 357.5548 111.4186 12.29757650157918
0 COSMOS 1823 DEB
1 18802U 87020AN  13289.71899660  .00000172  00000-0  15898-2 0  9875
2 18802 073.5924 058.7451 0105548 353.8906 069.7137 12.29757911158234
0 COSMOS 1823 DEB
1 18802U 87020AN  13292.40177340  .00000145  00000-0  13556-2 0  9889
2 18802 073.5926 055.2209 0105626 350.0887 066.7598 12.29758710158565
0 COSMOS 1823 DEB
1 18802U 87020AN  13294.77409553  .00000172  00000-0  15886-2 0  9894
2 18802 073.5927 052.1045 0105698 346.7336 129.3799 12.29759270158853
